NORAD_CAT_ID,OBJECT_NAME,OBJECT_TYPE,EPOCH,MEAN_MOTION,ECCENTRICITY,INCLINATION,RA_OF_ASC_NODE,ARG_OF_PERICENTER,MEAN_ANOMALY,BSTAR,MEAN_MOTION_DOT,MEAN_MOTION_DDOT,TLE_LINE0,TLE_LINE1,TLE_LINE2,SEMIMAJOR_AXIS,PERIOD,APOGEE,PERIGEE,DECAYED
49434.0,STARLINK-3134,PAYLOAD,2022-04-04 14:00:01,15.08833054,0.0002082,53.2182,191.5643,30.4111,26.2379,0.00083152,0.00012968,0.0,0 STARLINK-3134,1 49434U 21104AC  22094.58334491  .00012968  00000-0  83152-3 0  9994,2 49434  53.2182 191.5643 0002082  30.4111  26.2379 15.08833054 23065,6917.901999999999,95.438,541.207,538.326,0.0
49434.0,STARLINK-3134,PAYLOAD,2022-04-04 22:00:00,15.08868797,0.000204,53.2177,190.0671,30.3972,37.8465,-0.00063902,-0.00010452,0.0,0 STARLINK-3134,1 49434U 21104AC  22094.91667824 -.00010452  00000-0 -63902-3 0  9999,2 49434  53.2177 190.0671 0002040  30.3972  37.8465 15.08868797  3606,6917.792,95.436,541.069,538.246,0.0
49434.0,STARLINK-3134,PAYLOAD,2022-04-05 14:00:01,15.088568300000002,0.0002173,53.2174,187.0754,33.6381,57.919,-0.00083907,-0.00013624,0.0,0 STARLINK-3134,1 49434U 21104AC  22095.58335648 -.00013624  00000-0 -83907-3 0  9990,2 49434  53.2174 187.0754 0002173  33.6381  57.9190 15.08856830  3577,6917.829000000002,95.436,541.197,538.191,0.0
49434.0,STARLINK-3134,PAYLOAD,2022-04-05 16:00:00,15.08847013,0.0002198,53.2175,186.7015,32.4882,151.9122,0.00021101,3.072e-05,0.0,0 STARLINK-3134,1 49434U 21104AC  22095.66667824  .00003072  00000-0  21101-3 0  9995,2 49434  53.2175 186.7015 0002198  32.4882 151.9122 15.08847013 23221,6917.859,95.437,541.244,538.203,0.0
49434.0,STARLINK-3134,PAYLOAD,2022-04-05 22:00:00,15.08871271,0.0002119,53.2171,185.578,34.0543,69.0497,-0.0059931,-0.00094503,0.0,0 STARLINK-3134,1 49434U 21104AC  22095.91667824 -.00094503  00000-0 -59931-2 0  9995,2 49434  53.2171 185.5780 0002119  34.0543  69.0497 15.08871271  3571,6917.785,95.436,541.116,538.184,0.0
49434.0,STARLINK-3134,PAYLOAD,2022-04-06 06:00:02,15.08805384,0.0002111,53.2172,184.0809,39.9063,74.852,0.0018895,0.00029883,0.0,0 STARLINK-3134,1 49434U 21104AC  22096.25002315  .00029883  00000-0  18895-2 0  9992,2 49434  53.2172 184.0809 0002111  39.9063  74.8520 15.08805384 23318,6917.986,95.44,541.312,538.391,0.0
49434.0,STARLINK-3134,PAYLOAD,2022-04-06 14:00:01,15.08810461,0.0002328,53.2172,182.5865,36.1177,90.1437,0.001675,0.00026449,0.0,0 STARLINK-3134,1 49434U 21104AC  22096.58334491  .00026449  00000-0  16750-2 0  9994,2 49434  53.2172 182.5865 0002328  36.1177  90.1437 15.08810461  3608,6917.971,95.439,541.446,538.225,0.0
49434.0,STARLINK-3134,PAYLOAD,2022-04-06 22:00:00,15.0884585,0.0002227,53.217,181.08900000000003,36.4712,101.36,-0.00091025,-0.00014748,0.0,0 STARLINK-3134,1 49434U 21104AC  22096.91667824 -.00014748  00000-0 -91025-3 0  9990,2 49434  53.2170 181.0890 0002227  36.4712 101.3600 15.08845850  3566,6917.863,95.437,541.268,538.187,0.0
49434.0,STARLINK-3134,PAYLOAD,2022-04-07 06:00:00,15.08847146,0.0002188,53.2173,179.592,40.1669,109.2555,0.0012501,0.00019667,0.0,0 STARLINK-3134,1 49434U 21104AC  22097.25001157  .00019667  00000-0  12501-2 0  9993,2 49434  53.2173 179.5920 0002188  40.1669 109.2555 15.08847146 23461,6917.859,95.437,541.237,538.21,0.0
49434.0,STARLINK-3134,PAYLOAD,2022-04-07 14:00:01,15.08853057,0.0002376,53.2173,178.0975,34.8523,126.1848,-0.0013129,-0.00021131,0.0,0 STARLINK-3134,1 49434U 21104AC  22097.58334491 -.00021131  00000-0 -13129-2 0  9997,2 49434  53.2173 178.0975 0002376  34.8523 126.1848 15.08853057  3608,6917.84,95.437,541.349,538.062,0.0
49434.0,STARLINK-3134,PAYLOAD,2022-04-07 20:00:01,15.08868596,0.0002301,53.217,176.9744,32.0385,47.7074,-0.0037342,-0.00059278,0.0,0 STARLINK-3134,1 49434U 21104AC  22097.83334491 -.00059278  00000-0 -37342-2 0  9991,2 49434  53.2170 176.9744 0002301  32.0385  47.7074 15.08868596 23559,6917.793000000002,95.436,541.25,538.066,0.0
49434.0,STARLINK-3134,PAYLOAD,2022-04-07 22:00:00,15.08855323,0.0002219,53.2172,176.5998,32.8299,139.821,-0.0026139,-0.00041667,0.0,0 STARLINK-3134,1 49434U 21104AC  22097.91667824 -.00041667  00000-0 -26139-2 0  9994,2 49434  53.2172 176.5998 0002219  32.8299 139.8210 15.08855323  3601,6917.834,95.437,541.234,538.163,0.0
49434.0,STARLINK-3134,PAYLOAD,2022-04-08 06:00:00,15.08844312,0.0002164,53.2176,175.10299999999995,35.6435,148.602,0.0013652999999999,0.0002151,0.0,0 STARLINK-3134,1 49434U 21104AC  22098.25001157  .00021510  00000-0  13653-2 0  9993,2 49434  53.2176 175.1030 0002164  35.6435 148.6020 15.08844312 23615,6917.8669999999975,95.437,541.229,538.235,0.0
49434.0,STARLINK-3134,PAYLOAD,2022-04-08 14:00:03,15.08849409,0.0002376,53.2177,173.6083,31.1408,164.8381,0.00065981,0.00010231,0.0,0 STARLINK-3134,1 49434U 21104AC  22098.58336806  .00010231  00000-0  65981-3 0  9991,2 49434  53.2177 173.6083 0002376  31.1408 164.8381 15.08849409  3602,6917.852,95.437,541.36,538.073,0.0
49434.0,STARLINK-3134,PAYLOAD,2022-04-08 22:00:00,15.08857495,0.0002164,53.2178,172.1107,28.9637,178.5,-0.0039696,-0.00062945,0.0,0 STARLINK-3134,1 49434U 21104AC  22098.91667824 -.00062945  00000-0 -39696-2 0  9999,2 49434  53.2178 172.1107 0002164  28.9637 178.5000 15.08857495 23715,6917.8269999999975,95.436,541.189,538.195,0.0
49434.0,STARLINK-3134,PAYLOAD,2022-04-09 14:00:01,15.08817663,0.0002314,53.2182,169.1195,26.4883,204.1303,4.6975e-05,4.59e-06,0.0,0 STARLINK-3134,1 49434U 21104AC  22099.58334491  .00000459  00000-0  46975-4 0  9994,2 49434  53.2182 169.1195 0002314  26.4883 204.1303 15.08817663  3607,6917.949000000001,95.439,541.414,538.2130000000002,0.0
49434.0,STARLINK-3134,PAYLOAD,2022-04-09 16:00:00,15.08817689,0.0002304,53.2179,168.7454,24.9514,298.5657,0.00079039,0.00012306,0.0,0 STARLINK-3134,1 49434U 21104AC  22099.66667824  .00012306  00000-0  79039-3 0  9992,2 49434  53.2179 168.7454 0002304  24.9514 298.5657 15.08817689 23833,6917.949000000001,95.439,541.4069999999998,538.22,0.0
49434.0,STARLINK-3134,PAYLOAD,2022-04-09 22:00:00,15.0882141,0.0002133,53.2182,167.6217,25.7443,216.4543,-1.5032e-05,-5.27e-06,0.0,0 STARLINK-3134,1 49434U 21104AC  22099.91667824 -.00000527  00000-0 -15032-4 0  9998,2 49434  53.2182 167.6217 0002133  25.7443 216.4543 15.08821410  3605,6917.937,95.439,541.278,538.327,0.0
49434.0,STARLINK-3134,PAYLOAD,2022-04-10 14:00:01,15.088174800000004,0.0002333,53.2184,164.6308,25.9056,239.4565,0.0030862,0.00049142,0.0,0 STARLINK-3134,1 49434U 21104AC  22100.58334491  .00049142  00000-0  30862-2 0  9995,2 49434  53.2184 164.6308 0002333  25.9056 239.4565 15.08817480  3611,6917.949000000001,95.439,541.428,538.2,0.0
49434.0,STARLINK-3134,PAYLOAD,2022-04-10 22:00:00,15.08860904,0.0002159,53.2184,163.1329,27.4402,249.5293,0.00074387,0.00011577,0.0,0 STARLINK-3134,1 49434U 21104AC  22100.91667824  .00011577  00000-0  74387-3 0  9993,2 49434  53.2184 163.1329 0002159  27.4402 249.5293 15.08860904 24012,6917.816,95.436,541.175,538.188,0.0
49434.0,STARLINK-3134,PAYLOAD,2022-04-11 14:00:01,15.0883427,0.0002378,53.2183,160.1419,28.7303,271.4786,-0.00031318,-5.269e-05,0.0,0 STARLINK-3134,1 49434U 21104AC  22101.58334491 -.00005269  00000-0 -31318-3 0  9998,2 49434  53.2183 160.1419 0002378  28.7303 271.4786 15.08834270 24125,6917.898,95.438,541.408,538.118,0.0
49434.0,STARLINK-3134,PAYLOAD,2022-04-11 22:00:00,15.0881475,0.0002212,53.2181,158.644,31.3676,280.4356,-0.0025698,-0.00040928,0.0,0 STARLINK-3134,1 49434U 21104AC  22101.91667824 -.00040928  00000-0 -25698-2 0  9998,2 49434  53.2181 158.6440 0002212  31.3676 280.4356 15.08814750  3580,6917.958000000001,95.439,541.3530000000002,538.2919999999998,0.0
49434.0,STARLINK-3134,PAYLOAD,2022-04-12 06:00:02,15.087927800000005,0.0002216,53.2182,157.1481,34.0667,289.3355,0.0011975999999999,0.00018799,0.0,0 STARLINK-3134,1 49434U 21104AC  22102.25002315  .00018799  00000-0  11976-2 0  9997,2 49434  53.2182 157.1481 0002216  34.0667 289.3355 15.08792780 24223,6918.025,95.441,541.423,538.357,0.0
49434.0,STARLINK-3134,PAYLOAD,2022-04-12 14:00:01,15.08793686,0.000239,53.2179,155.6535,29.4614,305.4237,0.003529,0.00056254,0.0,0 STARLINK-3134,1 49434U 21104AC  22102.58334491  .00056254  00000-0  35290-2 0  9999,2 49434  53.2179 155.6535 0002390  29.4614 305.4237 15.08793686  3597,6918.022,95.44,541.54,538.234,0.0
49434.0,STARLINK-3134,PAYLOAD,2022-04-12 22:00:00,15.08819619,0.000221,53.2179,154.1531,31.8695,314.585,0.00090326,0.00014109,0.0,0 STARLINK-3134,1 49434U 21104AC  22102.91667824  .00014109  00000-0  90326-3 0  9990,2 49434  53.2179 154.1531 0002210  31.8695 314.5850 15.08819619  3568,6917.943,95.439,541.337,538.279,0.0
49434.0,STARLINK-3134,PAYLOAD,2022-04-13 04:00:00,15.08775827,0.0002216,53.2175,153.028,35.2777,229.8648,0.014749,0.00242193,0.0,0 STARLINK-3134,1 49434U 21104AC  22103.16667824  .00242193  00000-0  14749-1 0  9997,2 49434  53.2175 153.0280 0002216  35.2777 229.8648 15.08775827 24353,6918.0769999999975,95.442,541.475,538.409,0.0
49434.0,STARLINK-3134,PAYLOAD,2022-04-13 14:00:03,15.08820279,0.0002452,53.2174,151.1646,30.4822,339.2698,0.003159,0.00050321,0.0,0 STARLINK-3134,1 49434U 21104AC  22103.58336806  .00050321  00000-0  31590-2 0  9990,2 49434  53.2174 151.1646 0002452  30.4822 339.2698 15.08820279 24428,6917.941,95.439,541.502,538.109,0.0
49434.0,STARLINK-3134,PAYLOAD,2022-04-13 22:00:00,15.08835882,0.0002282,53.2173,149.6666,33.2474,347.9781,0.001785,0.00028232,0.0,0 STARLINK-3134,1 49434U 21104AC  22103.91667824  .00028232  00000-0  17850-2 0  9993,2 49434  53.2173 149.6666 0002282  33.2474 347.9781 15.08835882  3620,6917.893,95.438,541.337,538.179,0.0
49434.0,STARLINK-3134,PAYLOAD,2022-04-14 06:00:00,15.08868617,0.0002364,53.2174,148.1709,34.4663,358.3483,-0.0016274,-0.00026116,0.0,0 STARLINK-3134,1 49434U 21104AC  22104.25001157 -.00026116  00000-0 -16274-2 0  9992,2 49434  53.2174 148.1709 0002364  34.4663 358.3483 15.08868617 24526,6917.793000000002,95.436,541.293,538.023,0.0
